[{"OBJECT_NAME":"STARLINK-35261","OBJECT_ID":"2025-207D","EPOCH":"2026-03-09T17:56:34.272096","MEAN_MOTION":15.05645009,"ECCENTRICITY":0.00012423,"INCLINATION":97.603,"RA_OF_ASC_NODE":138.7752,"ARG_OF_PERICENTER":85.1834,"MEAN_ANOMALY":274.9535,"EPHEMERIS_TYPE":0,"CLASSIFICATION_TYPE":"U","NORAD_CAT_ID":65595,"ELEMENT_SET_NO":999,"REV_AT_EPOCH":2827,"BSTAR":0.00026470351,"MEAN_MOTION_DOT":3.76e-5,"MEAN_MOTION_DDOT":0},{"OBJECT_NAME":"COSMOS 2251 DEB","OBJECT_ID":"1993-036BFE","EPOCH":"2026-03-07T11:17:48.105024","MEAN_MOTION":15.02528382,"ECCENTRICITY":0.00920663,"INCLINATION":74.0305,"RA_OF_ASC_NODE":348.6467,"ARG_OF_PERICENTER":45.7,"MEAN_ANOMALY":315.169,"EPHEMERIS_TYPE":0,"CLASSIFICATION_TYPE":"U","NORAD_CAT_ID":37084,"ELEMENT_SET_NO":999,"REV_AT_EPOCH":67539,"BSTAR":0.00092223433,"MEAN_MOTION_DOT":0.00013425,"MEAN_MOTION_DDOT":0}]
